GOES 1 (SMS-C)          
1 08366U 75100A   26062.31221507 -.00000006  00000+0  00000+0 0  9998
2 08366   4.8774 278.7631 0005426 359.7201 234.4763  1.00237210184001
GOES 2                  
1 10061U 77048A   26062.46742145 -.00000284  00000+0  00000+0 0  9996
2 10061   6.6714 294.2266 0013884  47.5581 106.2985  0.99397806 45224
GOES 3                  
1 10953U 78062A   26062.47582814 -.00000267  00000+0  00000+0 0  9990
2 10953   7.1409 300.0544 0002831 354.6494 199.3130  0.99365908127483
GOES 4                  
1 11964U 80074A   26062.37060292 -.00000254  00000+0  00000+0 0  9995
2 11964   8.2145 303.7385 0032089 103.0150 199.2874  0.99231464126382
GOES 5                  
1 12472U 81049A   26062.14113352 -.00000207  00000+0  00000+0 0  9992
2 12472   9.5481 316.3502 0004669 336.7595 190.2431  1.00211746121789
GOES 6                  
1 14050U 83041A   26062.32956685 -.00000082  00000+0  00000+0 0  9995
2 14050  10.3592 321.9070 0002361 306.4375 262.1209  1.00217666214956
GOES 7                  
1 17561U 87022A   26062.40572343  .00000068  00000+0  00000+0 0  9995
2 17561  13.0217 338.3812 0003944  14.6167 182.3930  0.99894387125909
GOES 8                  
1 23051U 94022A   26062.12180675 -.00000227  00000+0  00000+0 0  9994
2 23051  14.3393  14.4798 0004973  14.0409 350.5100  0.98908038123083
GOES 9                  
1 23581U 95025A   26062.28656094 -.00000111  00000+0  00000+0 0  9998
2 23581  13.8687  15.3213 0003670 211.1154 323.5692  0.98798997111717
GOES 10                 
1 24786U 97019A   26062.49903685 -.00000115  00000+0  00000+0 0  9999
2 24786  13.0030  21.8539 0031205 239.1828 179.6901  0.99122429105027
GOES 11                 
1 26352U 00022A   26062.42946125 -.00000136  00000+0  00000+0 0  9990
2 26352  11.5782  47.4531 0005958 254.4527 302.2640  0.99041196 51422
GOES 12                 
1 26871U 01031A   26062.29028762 -.00000221  00000+0  00000+0 0  9995
2 26871  11.9927  38.1522 0008757 295.7607 236.4634  0.99137650 89712
EWS-G1 (GOES 13)        
1 29155U 06018A   26062.42278786  .00000023  00000+0  00000+0 0  9990
2 29155   4.2585  77.7147 0062003 272.9503 216.8316  0.98784741 42203
GOES 14                 
1 35491U 09033A   26062.49208841  .00000115  00000+0  00000+0 0  9994
2 35491   1.4166  84.4343 0002209 296.6761 159.6122  1.00123843  5539
EWS-G2 (GOES 15)        
1 36411U 10008A   26062.45641471  .00000007  00000+0  00000+0 0  9997
2 36411   1.0067  85.1657 0001687  23.2370 280.6157  1.00269337 58577
GOES 16                 
1 41866U 16071A   26062.41989120 -.00000106  00000+0  00000+0 0  9996
2 41866   0.1448  90.2078 0002581 216.6181 260.8121  1.00271658 34042
GOES 17                 
1 43226U 18022A   26062.40878172 -.00000197  00000+0  00000+0 0  9999
2 43226   0.6656  87.5764 0002305 219.9995 271.2510  1.00270430 29368
