[{"OBJECT_NAME":"GOES 1 (SMS-C)","OBJECT_ID":"1975-100A","EPOCH":"2026-03-03T07:29:35.382048","MEAN_MOTION":1.0023721,"ECCENTRICITY":0.0005426,"INCLINATION":4.8774,"RA_OF_ASC_NODE":278.7631,"ARG_OF_PERICENTER":359.7201,"MEAN_ANOMALY":234.4763,"EPHEMERIS_TYPE":0,"CLASSIFICATION_TYPE":"U","NORAD_CAT_ID":8366,"ELEMENT_SET_NO":999,"REV_AT_EPOCH":18400,"BSTAR":0,"MEAN_MOTION_DOT":-6.0e-8,"MEAN_MOTION_DDOT":0},{"OBJECT_NAME":"GOES 2","OBJECT_ID":"1977-048A","EPOCH":"2026-03-03T11:13:05.213280","MEAN_MOTION":0.99397806,"ECCENTRICITY":0.0013884,"INCLINATION":6.6714,"RA_OF_ASC_NODE":294.2266,"ARG_OF_PERICENTER":47.5581,"MEAN_ANOMALY":106.2985,"EPHEMERIS_TYPE":0,"CLASSIFICATION_TYPE":"U","NORAD_CAT_ID":10061,"ELEMENT_SET_NO":999,"REV_AT_EPOCH":4522,"BSTAR":0,"MEAN_MOTION_DOT":-2.84e-6,"MEAN_MOTION_DDOT":0},{"OBJECT_NAME":"GOES 3","OBJECT_ID":"1978-062A","EPOCH":"2026-03-03T11:25:11.551296","MEAN_MOTION":0.99365908,"ECCENTRICITY":0.0002831,"INCLINATION":7.1409,"RA_OF_ASC_NODE":300.0544,"ARG_OF_PERICENTER":354.6494,"MEAN_ANOMALY":199.313,"EPHEMERIS_TYPE":0,"CLASSIFICATION_TYPE":"U","NORAD_CAT_ID":10953,"ELEMENT_SET_NO":999,"REV_AT_EPOCH":12748,"BSTAR":0,"MEAN_MOTION_DOT":-2.67e-6,"MEAN_MOTION_DDOT":0},{"OBJECT_NAME":"GOES 4","OBJECT_ID":"1980-074A","EPOCH":"2026-03-03T08:53:40.092288","MEAN_MOTION":0.99231464,"ECCENTRICITY":0.0032089,"INCLINATION":8.2145,"RA_OF_ASC_NODE":303.7385,"ARG_OF_PERICENTER":103.015,"MEAN_ANOMALY":199.2874,"EPHEMERIS_TYPE":0,"CLASSIFICATION_TYPE":"U","NORAD_CAT_ID":11964,"ELEMENT_SET_NO":999,"REV_AT_EPOCH":12638,"BSTAR":0,"MEAN_MOTION_DOT":-2.54e-6,"MEAN_MOTION_DDOT":0},{"OBJECT_NAME":"GOES 5","OBJECT_ID":"1981-049A","EPOCH":"2026-03-03T03:23:13.936128","MEAN_MOTION":1.00211746,"ECCENTRICITY":0.0004669,"INCLINATION":9.5481,"RA_OF_ASC_NODE":316.3502,"ARG_OF_PERICENTER":336.7595,"MEAN_ANOMALY":190.2431,"EPHEMERIS_TYPE":0,"CLASSIFICATION_TYPE":"U","NORAD_CAT_ID":12472,"ELEMENT_SET_NO":999,"REV_AT_EPOCH":12178,"BSTAR":0,"MEAN_MOTION_DOT":-2.07e-6,"MEAN_MOTION_DDOT":0},{"OBJECT_NAME":"GOES 6","OBJECT_ID":"1983-041A","EPOCH":"2026-03-03T07:54:34.575840","MEAN_MOTION":1.00217666,"ECCENTRICITY":0.0002361,"INCLINATION":10.3592,"RA_OF_ASC_NODE":321.907,"ARG_OF_PERICENTER":306.4375,"MEAN_ANOMALY":262.1209,"EPHEMERIS_TYPE":0,"CLASSIFICATION_TYPE":"U","NORAD_CAT_ID":14050,"ELEMENT_SET_NO":999,"REV_AT_EPOCH":21495,"BSTAR":0,"MEAN_MOTION_DOT":-8.2e-7,"MEAN_MOTION_DDOT":0},{"OBJECT_NAME":"GOES 7","OBJECT_ID":"1987-022A","EPOCH":"2026-03-03T09:44:14.504352","MEAN_MOTION":0.99894387,"ECCENTRICITY":0.0003944,"INCLINATION":13.0217,"RA_OF_ASC_NODE":338.3812,"ARG_OF_PERICENTER":14.6167,"MEAN_ANOMALY":182.393,"EPHEMERIS_TYPE":0,"CLASSIFICATION_TYPE":"U","NORAD_CAT_ID":17561,"ELEMENT_SET_NO":999,"REV_AT_EPOCH":12590,"BSTAR":0,"MEAN_MOTION_DOT":6.8e-7,"MEAN_MOTION_DDOT":0},{"OBJECT_NAME":"GOES 8","OBJECT_ID":"1994-022A","EPOCH":"2026-03-03T02:55:24.103200","MEAN_MOTION":0.98908038,"ECCENTRICITY":0.0004973,"INCLINATION":14.3393,"RA_OF_ASC_NODE":14.4798,"ARG_OF_PERICENTER":14.0409,"MEAN_ANOMALY":350.51,"EPHEMERIS_TYPE":0,"CLASSIFICATION_TYPE":"U","NORAD_CAT_ID":23051,"ELEMENT_SET_NO":999,"REV_AT_EPOCH":12308,"BSTAR":0,"MEAN_MOTION_DOT":-2.27e-6,"MEAN_MOTION_DDOT":0},{"OBJECT_NAME":"GOES 9","OBJECT_ID":"1995-025A","EPOCH":"2026-03-03T06:52:38.865216","MEAN_MOTION":0.98798997,"ECCENTRICITY":0.000367,"INCLINATION":13.8687,"RA_OF_ASC_NODE":15.3213,"ARG_OF_PERICENTER":211.1154,"MEAN_ANOMALY":323.5692,"EPHEMERIS_TYPE":0,"CLASSIFICATION_TYPE":"U","NORAD_CAT_ID":23581,"ELEMENT_SET_NO":999,"REV_AT_EPOCH":11171,"BSTAR":0,"MEAN_MOTION_DOT":-1.11e-6,"MEAN_MOTION_DDOT":0},{"OBJECT_NAME":"GOES 10","OBJECT_ID":"1997-019A","EPOCH":"2026-03-03T11:58:36.783840","MEAN_MOTION":0.99122429,"ECCENTRICITY":0.0031205,"INCLINATION":13.003,"RA_OF_ASC_NODE":21.8539,"ARG_OF_PERICENTER":239.1828,"MEAN_ANOMALY":179.6901,"EPHEMERIS_TYPE":0,"CLASSIFICATION_TYPE":"U","NORAD_CAT_ID":24786,"ELEMENT_SET_NO":999,"REV_AT_EPOCH":10502,"BSTAR":0,"MEAN_MOTION_DOT":-1.15e-6,"MEAN_MOTION_DDOT":0},{"OBJECT_NAME":"GOES 11","OBJECT_ID":"2000-022A","EPOCH":"2026-03-03T10:18:25.452000","MEAN_MOTION":0.99041196,"ECCENTRICITY":0.0005958,"INCLINATION":11.5782,"RA_OF_ASC_NODE":47.4531,"ARG_OF_PERICENTER":254.4527,"MEAN_ANOMALY":302.264,"EPHEMERIS_TYPE":0,"CLASSIFICATION_TYPE":"U","NORAD_CAT_ID":26352,"ELEMENT_SET_NO":999,"REV_AT_EPOCH":5142,"BSTAR":0,"MEAN_MOTION_DOT":-1.36e-6,"MEAN_MOTION_DDOT":0},{"OBJECT_NAME":"GOES 12","OBJECT_ID":"2001-031A","EPOCH":"2026-03-03T06:58:00.850368","MEAN_MOTION":0.9913765,"ECCENTRICITY":0.0008757,"INCLINATION":11.9927,"RA_OF_ASC_NODE":38.1522,"ARG_OF_PERICENTER":295.7607,"MEAN_ANOMALY":236.4634,"EPHEMERIS_TYPE":0,"CLASSIFICATION_TYPE":"U","NORAD_CAT_ID":26871,"ELEMENT_SET_NO":999,"REV_AT_EPOCH":8971,"BSTAR":0,"MEAN_MOTION_DOT":-2.21e-6,"MEAN_MOTION_DDOT":0},{"OBJECT_NAME":"EWS-G1 (GOES 13)","OBJECT_ID":"2006-018A","EPOCH":"2026-03-03T10:08:48.871104","MEAN_MOTION":0.98784741,"ECCENTRICITY":0.0062003,"INCLINATION":4.2585,"RA_OF_ASC_NODE":77.7147,"ARG_OF_PERICENTER":272.9503,"MEAN_ANOMALY":216.8316,"EPHEMERIS_TYPE":0,"CLASSIFICATION_TYPE":"U","NORAD_CAT_ID":29155,"ELEMENT_SET_NO":999,"REV_AT_EPOCH":4220,"BSTAR":0,"MEAN_MOTION_DOT":2.3e-7,"MEAN_MOTION_DDOT":0},{"OBJECT_NAME":"GOES 14","OBJECT_ID":"2009-033A","EPOCH":"2026-03-03T11:48:36.438624","MEAN_MOTION":1.00123843,"ECCENTRICITY":0.0002209,"INCLINATION":1.4166,"RA_OF_ASC_NODE":84.4343,"ARG_OF_PERICENTER":296.6761,"MEAN_ANOMALY":159.6122,"EPHEMERIS_TYPE":0,"CLASSIFICATION_TYPE":"U","NORAD_CAT_ID":35491,"ELEMENT_SET_NO":999,"REV_AT_EPOCH":553,"BSTAR":0,"MEAN_MOTION_DOT":1.15e-6,"MEAN_MOTION_DDOT":0},{"OBJECT_NAME":"EWS-G2 (GOES 15)","OBJECT_ID":"2010-008A","EPOCH":"2026-03-03T10:57:14.230944","MEAN_MOTION":1.00269337,"ECCENTRICITY":0.0001687,"INCLINATION":1.0067,"RA_OF_ASC_NODE":85.1657,"ARG_OF_PERICENTER":23.237,"MEAN_ANOMALY":280.6157,"EPHEMERIS_TYPE":0,"CLASSIFICATION_TYPE":"U","NORAD_CAT_ID":36411,"ELEMENT_SET_NO":999,"REV_AT_EPOCH":5857,"BSTAR":0,"MEAN_MOTION_DOT":7.0e-8,"MEAN_MOTION_DDOT":0},{"OBJECT_NAME":"GOES 16","OBJECT_ID":"2016-071A","EPOCH":"2026-03-03T10:04:38.599680","MEAN_MOTION":1.00271658,"ECCENTRICITY":0.0002581,"INCLINATION":0.1448,"RA_OF_ASC_NODE":90.2078,"ARG_OF_PERICENTER":216.6181,"MEAN_ANOMALY":260.8121,"EPHEMERIS_TYPE":0,"CLASSIFICATION_TYPE":"U","NORAD_CAT_ID":41866,"ELEMENT_SET_NO":999,"REV_AT_EPOCH":3404,"BSTAR":0,"MEAN_MOTION_DOT":-1.06e-6,"MEAN_MOTION_DDOT":0},{"OBJECT_NAME":"GOES 17","OBJECT_ID":"2018-022A","EPOCH":"2026-03-03T09:48:38.740608","MEAN_MOTION":1.0027043,"ECCENTRICITY":0.0002305,"INCLINATION":0.6656,"RA_OF_ASC_NODE":87.5764,"ARG_OF_PERICENTER":219.9995,"MEAN_ANOMALY":271.251,"EPHEMERIS_TYPE":0,"CLASSIFICATION_TYPE":"U","NORAD_CAT_ID":43226,"ELEMENT_SET_NO":999,"REV_AT_EPOCH":2936,"BSTAR":0,"MEAN_MOTION_DOT":-1.97e-6,"MEAN_MOTION_DDOT":0}]
